{
  "type": "FeatureCollection",
  "features": [
    {
      "type": "Feature",
      "properties": {
        "norad_id": 64751,
        "name": "PROGRESS-MS 31",
        "group": "stations",
        "lat": 17.499643446832945,
        "lon": -103.83740409409427,
        "alt_km": 417.0865460198793,
        "timestamp": "2025-12-23T05:02:10.783192+00:00",
        "meta_object_name": "PROGRESS-MS 31",
        "meta_object_id": "2025-146A",
        "meta_epoch": "2025-12-22T15:58:44.561856",
        "meta_mean_motion": 15.49732869,
        "meta_eccentricity": 0.00031542,
        "meta_inclination": 51.6326,
        "meta_ra_of_asc_node": 93.3232,
        "meta_arg_of_pericenter": 286.8846,
        "meta_mean_anomaly": 73.1797,
        "meta_ephemeris_type": 0,
        "meta_classification_type": "U",
        "meta_norad_cat_id": 64751,
        "meta_element_set_no": 999,
        "meta_rev_at_epoch": 675,
        "meta_bstar": 0.00022188304,
        "meta_mean_motion_dot": 0.0001211,
        "meta_mean_motion_ddot": 0,
        "tle_line1": "1 64751U 25146A   25356.66579354  .00012110  00000+0  22188-3 0  9995",
        "tle_line2": "2 64751  51.6326  93.3232 0003154 286.8846  73.1797 15.49732869  6751"
      },
      "geometry": {
        "type": "Point",
        "coordinates": [
          -103.83740409409427,
          17.499643446832945
        ]
      }
    },
    {
      "type": "Feature",
      "properties": {
        "norad_id": 64786,
        "name": "TIANZHOU-9",
        "group": "stations",
        "lat": -27.926329744225185,
        "lon": -83.76269780322569,
        "alt_km": 396.4436503702036,
        "timestamp": "2025-12-23T05:02:10.783202+00:00",
        "meta_object_name": "TIANZHOU-9",
        "meta_object_id": "2025-149A",
        "meta_epoch": "2025-12-22T20:00:27.776448",
        "meta_mean_motion": 15.59577421,
        "meta_eccentricity": 0.00078985,
        "meta_inclination": 41.4686,
        "meta_ra_of_asc_node": 315.409,
        "meta_arg_of_pericenter": 119.6774,
        "meta_mean_anomaly": 240.4851,
        "meta_ephemeris_type": 0,
        "meta_classification_type": "U",
        "meta_norad_cat_id": 64786,
        "meta_element_set_no": 999,
        "meta_rev_at_epoch": 25530,
        "meta_bstar": 0.00020454,
        "meta_mean_motion_dot": 0.00016458,
        "meta_mean_motion_ddot": 0,
        "tle_line1": "1 64786U 25149A   25356.83365482  .00016458  00000+0  20454-3 0  9993",
        "tle_line2": "2 64786  41.4686 315.4090 0007898 119.6774 240.4851 15.59577421255306"
      },
      "geometry": {
        "type": "Point",
        "coordinates": [
          -83.76269780322569,
          -27.926329744225185
        ]
      }
    },
    {
      "type": "Feature",
      "properties": {
        "norad_id": 65077,
        "name": "CREW DRAGON 11",
        "group": "stations",
        "lat": 17.49964236752969,
        "lon": -103.83740312452483,
        "alt_km": 417.0865461493768,
        "timestamp": "2025-12-23T05:02:10.783214+00:00",
        "meta_object_name": "CREW DRAGON 11",
        "meta_object_id": "2025-166A",
        "meta_epoch": "2025-12-22T15:58:44.561856",
        "meta_mean_motion": 15.49732869,
        "meta_eccentricity": 0.00031542,
        "meta_inclination": 51.6326,
        "meta_ra_of_asc_node": 93.3232,
        "meta_arg_of_pericenter": 286.8846,
        "meta_mean_anomaly": 73.1797,
        "meta_ephemeris_type": 0,
        "meta_classification_type": "U",
        "meta_norad_cat_id": 65077,
        "meta_element_set_no": 999,
        "meta_rev_at_epoch": 214,
        "meta_bstar": 0.00022188304,
        "meta_mean_motion_dot": 0.0001211,
        "meta_mean_motion_ddot": 0,
        "tle_line1": "1 65077U 25166A   25356.66579354  .00012110  00000+0  22188-3 0  9999",
        "tle_line2": "2 65077  51.6326  93.3232 0003154 286.8846  73.1797 15.49732869  2142"
      },
      "geometry": {
        "type": "Point",
        "coordinates": [
          -103.83740312452483,
          17.49964236752969
        ]
      }
    },
    {
      "type": "Feature",
      "properties": {
        "norad_id": 65304,
        "name": "DRAGON CRS-33",
        "group": "stations",
        "lat": 17.49964182787775,
        "lon": -103.83740263973984,
        "alt_km": 417.08654621412643,
        "timestamp": "2025-12-23T05:02:10.783225+00:00",
        "meta_object_name": "DRAGON CRS-33",
        "meta_object_id": "2025-186A",
        "meta_epoch": "2025-12-22T15:58:44.561856",
        "meta_mean_motion": 15.49732869,
        "meta_eccentricity": 0.00031542,
        "meta_inclination": 51.6326,
        "meta_ra_of_asc_node": 93.3232,
        "meta_arg_of_pericenter": 286.8846,
        "meta_mean_anomaly": 73.1797,
        "meta_ephemeris_type": 0,
        "meta_classification_type": "U",
        "meta_norad_cat_id": 65304,
        "meta_element_set_no": 999,
        "meta_rev_at_epoch": 11,
        "meta_bstar": 0.00022188304,
        "meta_mean_motion_dot": 0.0001211,
        "meta_mean_motion_ddot": 0,
        "tle_line1": "1 65304U 25186A   25356.66579354  .00012110  00000+0  22188-3 0  9994",
        "tle_line2": "2 65304  51.6326  93.3232 0003154 286.8846  73.1797 15.49732869   110"
      },
      "geometry": {
        "type": "Point",
        "coordinates": [
          -103.83740263973984,
          17.49964182787775
        ]
      }
    },
    {
      "type": "Feature",
      "properties": {
        "norad_id": 65586,
        "name": "PROGRESS-MS 32",
        "group": "stations",
        "lat": 17.499641337285308,
        "lon": -103.83740219902643,
        "alt_km": 417.086546272988,
        "timestamp": "2025-12-23T05:02:10.783235+00:00",
        "meta_object_name": "PROGRESS-MS 32",
        "meta_object_id": "2025-204A",
        "meta_epoch": "2025-12-22T15:58:44.561856",
        "meta_mean_motion": 15.49732869,
        "meta_eccentricity": 0.00031542,
        "meta_inclination": 51.6326,
        "meta_ra_of_asc_node": 93.3232,
        "meta_arg_of_pericenter": 286.8846,
        "meta_mean_anomaly": 73.1797,
        "meta_ephemeris_type": 0,
        "meta_classification_type": "U",
        "meta_norad_cat_id": 65586,
        "meta_element_set_no": 999,
        "meta_rev_at_epoch": 27,
        "meta_bstar": 0.00022188304,
        "meta_mean_motion_dot": 0.0001211,
        "meta_mean_motion_ddot": 0,
        "tle_line1": "1 65586U 25204A   25356.66579354  .00012110  00000+0  22188-3 0  9997",
        "tle_line2": "2 65586  51.6326  93.3232 0003154 286.8846  73.1797 15.49732869   279"
      },
      "geometry": {
        "type": "Point",
        "coordinates": [
          -103.83740219902643,
          17.499641337285308
        ]
      }
    },
    {
      "type": "Feature",
      "properties": {
        "norad_id": 65616,
        "name": "CYGNUS NG-23",
        "group": "stations",
        "lat": 17.49964089575173,
        "lon": -103.83740180238401,
        "alt_km": 417.08654632596426,
        "timestamp": "2025-12-23T05:02:10.783244+00:00",
        "meta_object_name": "CYGNUS NG-23",
        "meta_object_id": "2025-208A",
        "meta_epoch": "2025-12-22T15:58:44.561856",
        "meta_mean_motion": 15.49732869,
        "meta_eccentricity": 0.00031542,
        "meta_inclination": 51.6326,
        "meta_ra_of_asc_node": 93.3232,
        "meta_arg_of_pericenter": 286.8846,
        "meta_mean_anomaly": 73.1797,
        "meta_ephemeris_type": 0,
        "meta_classification_type": "U",
        "meta_norad_cat_id": 65616,
        "meta_element_set_no": 999,
        "meta_rev_at_epoch": 22,
        "meta_bstar": 0.00022188304,
        "meta_mean_motion_dot": 0.0001211,
        "meta_mean_motion_ddot": 0,
        "tle_line1": "1 65616U 25208A   25356.66579354  .00012110  00000+0  22188-3 0  9995",
        "tle_line2": "2 65616  51.6326  93.3232 0003154 286.8846  73.1797 15.49732869   228"
      },
      "geometry": {
        "type": "Point",
        "coordinates": [
          -103.83740180238401,
          17.49964089575173
        ]
      }
    },
    {
      "type": "Feature",
      "properties": {
        "norad_id": 65729,
        "name": "DRAGONFLY",
        "group": "stations",
        "lat": -28.6778414202526,
        "lon": 56.32158951781161,
        "alt_km": 342.01189433319723,
        "timestamp": "2025-12-23T05:02:10.783254+00:00",
        "meta_object_name": "DRAGONFLY",
        "meta_object_id": "1998-067XH",
        "meta_epoch": "2025-12-22T15:29:37.121856",
        "meta_mean_motion": 15.75220895,
        "meta_eccentricity": 0.00077856,
        "meta_inclination": 51.6244,
        "meta_ra_of_asc_node": 84.9151,
        "meta_arg_of_pericenter": 337.8608,
        "meta_mean_anomaly": 22.2054,
        "meta_ephemeris_type": 0,
        "meta_classification_type": "U",
        "meta_norad_cat_id": 65729,
        "meta_element_set_no": 999,
        "meta_rev_at_epoch": 1472,
        "meta_bstar": 0.0012171562,
        "meta_mean_motion_dot": 0.0019065,
        "meta_mean_motion_ddot": 0,
        "tle_line1": "1 65729U 98067XH  25356.64556854  .00190650  00000+0  12172-2 0  9998",
        "tle_line2": "2 65729  51.6244  84.9151 0007785 337.8608  22.2054 15.75220895 14726"
      },
      "geometry": {
        "type": "Point",
        "coordinates": [
          56.32158951781161,
          -28.6778414202526
        ]
      }
    }
  ]
}